{
  "type": "Feature",
  "geometry": {
    "type": "MultiPolygon",
    "coordinates": [
      [
        [
          [
            5.5,
            37.0
          ],
          [
            11.5,
            33.5
          ],
          [
            9.5,
            31.0
          ],
          [
            7.5,
            31.0
          ],
          [
            5.0,
            33.0
          ],
          [
            5.5,
            37.0
          ]
        ]
      ],
      [
        [
          [
            8.2,
            41.3
          ],
          [
            9.5,
            40.89375
          ],
          [
            9.5,
            40.0
          ],
          [
            9.8,
            39.46
          ],
          [
            9.8,
            39.0
          ],
          [
            8.8,
            38.0
          ],
          [
            8.1,
            39.5
          ],
          [
            8.2,
            41.3
          ]
        ]
      ],
      [
        [
          [
            9.5,
            41.5
          ],
          [
            9.8,
            43.5
          ],
          [
            8.5,
            44.2
          ],
          [
            10.5,
            44.5
          ],
          [
            12.5,
            45.0
          ],
          [
            14.5,
            45.0
          ],
          [
            15.5,
            43.5
          ],
          [
            16.5,
            41.5
          ],
          [
            18.0,
            40.5
          ],
          [
            18.5,
            40.3
          ],
          [
            17.5,
            39.5
          ],
          [
            16.0,
            38.0
          ],
          [
            15.8,
            37.5
          ],
          [
            16.1,
            37.0
          ],
          [
            15.5,
            36.8
          ],
          [
            14.5,
            37.2
          ],
          [
            12.0,
            37.5
          ],
          [
            10.5,
            38.2
          ],
          [
            9.8,
            39.46
          ],
          [
            9.8,
            40.8
          ],
          [
            9.5,
            40.89375
          ],
          [
            9.5,
            41.5
          ]
        ],
        [
          [
            15.7,
            37.8
          ],
          [
            15.8,
            38.2
          ],
          [
            12.5,
            38.3
          ],
          [
            12.0,
            38.0
          ],
          [
            12.5,
            37.8
          ],
          [
            15.7,
            37.8
          ]
        ]
      ],
      [
        [
          [
            -9.5,
            38.5
          ],
          [
            -9.0,
            43.8
          ],
          [
            3.2,
            42.5
          ],
          [
            3.5,
            40.5
          ],
          [
            0.5,
            38.5
          ],
          [
            -1.5,
            36.5
          ],
          [
            -6.5,
            36.0
          ],
          [
            -9.5,
            38.5
          ]
        ]
      ],
      [
        [
          [
            9.5,
            41.5
          ],
          [
            8.5,
            41.6
          ],
          [
            8.5,
            43.0
          ],
          [
            9.6,
            42.5
          ],
          [
            9.5,
            41.5
          ]
        ]
      ],
      [
        [
          [
            20.5,
            43.0
          ],
          [
            20.5,
            42.72222222222222
          ],
          [
            19.5,
            42.5
          ],
          [
            14.5,
            45.0
          ],
          [
            13.5,
            45.5
          ],
          [
            18.5,
            45.0
          ],
          [
            19.5,
            44.5
          ],
          [
            20.5,
            43.0
          ]
        ]
      ],
      [
        [
          [
            24.0,
            43.5
          ],
          [
            26.5,
            41.5
          ],
          [
            26.26086956521739,
            40.54347826086956
          ],
          [
            26.0,
            40.5
          ],
          [
            26.205882352941178,
            40.3235294117647
          ],
          [
            26.0,
            39.5
          ],
          [
            22.0,
            37.0
          ],
          [
            20.5,
            39.5
          ],
          [
            19.5,
            42.5
          ],
          [
            20.5,
            42.0
          ],
          [
            20.5,
            42.72222222222222
          ],
          [
            24.0,
            43.5
          ]
        ]
      ],
      [
        [
          [
            35.0,
            42.0
          ],
          [
            38.0,
            40.0
          ],
          [
            36.53703703703704,
            37.074074074074076
          ],
          [
            35.5,
            37.0
          ],
          [
            35.470588235294116,
            36.794117647058826
          ],
          [
            34.0,
            36.5
          ],
          [
            29.5,
            37.5
          ],
          [
            26.205882352941178,
            40.3235294117647
          ],
          [
            26.26086956521739,
            40.54347826086956
          ],
          [
            35.0,
            42.0
          ]
        ]
      ],
      [
        [
          [
            42.5,
            37.5
          ],
          [
            43.0,
            35.5
          ],
          [
            40.5,
            33.0
          ],
          [
            35.0,
            33.5
          ],
          [
            35.470588235294116,
            36.794117647058826
          ],
          [
            36.5,
            37.0
          ],
          [
            36.53703703703704,
            37.074074074074076
          ],
          [
            42.5,
            37.5
          ]
        ]
      ],
      [
        [
          [
            3.5,
            43.5
          ],
          [
            0.5,
            43.0
          ],
          [
            -2.5,
            47.5
          ],
          [
            -4.5,
            47.5
          ],
          [
            -2.0,
            49.5
          ],
          [
            2.5,
            51.5
          ],
          [
            7.5,
            50.5
          ],
          [
            7.5,
            48.5
          ],
          [
            7.0,
            46.5
          ],
          [
            3.5,
            43.5
          ]
        ]
      ],
      [
        [
          [
            25.0,
            31.5
          ],
          [
            32.5,
            31.0
          ],
          [
            34.5,
            29.5
          ],
          [
            32.5,
            24.0
          ],
          [
            25.0,
            22.0
          ],
          [
            24.0,
            24.0
          ],
          [
            25.0,
            31.5
          ]
        ]
      ]
    ]
  },
  "properties": {
    "year_start": -27,
    "year_end": 14,
    "date_precision": "approximate",
    "confidence_type": "approximate",
    "source_name": "Manual trace \u2014 approximate historical boundaries",
    "source_license": "CC0"
  }
}