{
  "type": "Feature",
  "geometry": {
    "type": "MultiPolygon",
    "coordinates": [
      [
        [
          [
            27.0,
            38.0
          ],
          [
            27.0,
            37.5
          ],
          [
            27.1875,
            37.4375
          ],
          [
            27.5,
            36.5
          ],
          [
            26.0,
            36.0
          ],
          [
            25.0,
            36.5
          ],
          [
            25.0,
            37.5
          ],
          [
            27.0,
            38.0
          ]
        ]
      ],
      [
        [
          [
            29.5,
            38.5
          ],
          [
            30.0,
            37.5
          ],
          [
            28.5,
            37.0
          ],
          [
            27.1875,
            37.4375
          ],
          [
            27.0,
            38.0
          ],
          [
            29.5,
            38.5
          ]
        ]
      ],
      [
        [
          [
            13.5,
            37.5
          ],
          [
            12.5,
            37.8
          ],
          [
            12.0,
            38.0
          ],
          [
            12.5,
            38.3
          ],
          [
            13.5,
            38.5
          ],
          [
            14.0,
            38.0
          ],
          [
            13.5,
            37.5
          ]
        ]
      ],
      [
        [
          [
            14.0,
            37.8
          ],
          [
            14.5,
            40.5
          ],
          [
            16.0,
            41.5
          ],
          [
            16.5,
            40.5
          ],
          [
            15.8,
            38.5
          ],
          [
            15.0,
            37.5
          ],
          [
            14.0,
            37.8
          ]
        ]
      ],
      [
        [
          [
            28.0,
            42.0
          ],
          [
            30.5,
            41.0
          ],
          [
            31.0,
            39.5
          ],
          [
            29.5,
            38.5
          ],
          [
            27.5,
            38.5
          ],
          [
            26.3,
            40.1
          ],
          [
            26.5,
            40.5
          ],
          [
            26.5,
            40.875
          ],
          [
            28.0,
            42.0
          ]
        ]
      ],
      [
        [
          [
            26.0,
            39.5
          ],
          [
            24.5,
            40.5
          ],
          [
            24.0,
            38.5
          ],
          [
            22.0,
            37.0
          ],
          [
            21.0,
            38.0
          ],
          [
            20.5,
            39.5
          ],
          [
            19.5,
            40.5
          ],
          [
            20.0,
            42.0
          ],
          [
            19.5,
            42.5
          ],
          [
            22.0,
            43.5
          ],
          [
            24.5,
            43.5
          ],
          [
            26.5,
            42.0
          ],
          [
            26.5,
            40.875
          ],
          [
            26.0,
            40.5
          ],
          [
            26.3,
            40.1
          ],
          [
            26.0,
            39.5
          ]
        ]
      ]
    ]
  },
  "properties": {
    "year_start": -500,
    "year_end": -338,
    "date_precision": "approximate",
    "confidence_type": "approximate",
    "source_name": "Manual trace \u2014 approximate historical boundaries",
    "source_license": "CC0",
    "end_event_type": "conquest"
  }
}