{
  "type": "Feature",
  "properties": {},
  "geometry": {
    "type": "MultiPolygon",
    "coordinates": [
      [
        [
          [
            35.0,
            24.0
          ],
          [
            61.0,
            24.0
          ],
          [
            66.0,
            28.0
          ],
          [
            66.0,
            40.0
          ],
          [
            58.0,
            44.0
          ],
          [
            44.0,
            42.0
          ],
          [
            38.0,
            38.0
          ],
          [
            36.0,
            30.0
          ],
          [
            35.0,
            24.0
          ]
        ]
      ]
    ]
  }
}