{
  "type": "Feature",
  "properties": {},
  "geometry": {
    "type": "MultiPolygon",
    "coordinates": [
      [
        [
          [
            35.0,
            24.0
          ],
          [
            66.0,
            24.0
          ],
          [
            66.0,
            42.0
          ],
          [
            55.0,
            46.0
          ],
          [
            44.0,
            44.0
          ],
          [
            36.0,
            40.0
          ],
          [
            34.0,
            34.0
          ],
          [
            35.0,
            24.0
          ]
        ]
      ]
    ]
  }
}