{
  "type": "Feature",
  "geometry": {
    "type": "MultiPolygon",
    "coordinates": [
      [[[25.0,31.5],[29.0,31.5],[32.5,31.0],[34.5,29.5],[34.5,27.0],[32.5,24.0],[28.5,22.0],[25.0,22.0],[24.0,24.0],[24.0,28.0],[25.0,31.5]]],
      [[[11.5,33.5],[20.5,32.5],[25.0,31.5],[25.0,28.0],[20.0,29.0],[16.0,30.0],[13.0,31.0],[11.5,33.5]]],
      [[[35.0,33.5],[36.5,33.0],[36.5,32.0],[35.5,32.0],[35.0,33.5]]],
      [[[32.3,34.5],[34.6,35.7],[34.5,34.5],[33.5,34.5],[32.3,34.5]]]
    ]
  },
  "properties": {}
}
