{
  "type": "Feature",
  "properties": {},
  "geometry": {
    "type": "MultiPolygon",
    "coordinates": [
      [
        [
          [
            -10,
            27
          ],
          [
            11.5,
            27
          ],
          [
            11.5,
            37
          ],
          [
            -10,
            37
          ],
          [
            -10,
            27
          ]
        ]
      ],
      [
        [
          [
            -17,
            10.5
          ],
          [
            15,
            10.5
          ],
          [
            15,
            26.5
          ],
          [
            -17,
            26.5
          ],
          [
            -17,
            10.5
          ]
        ]
      ],
      [
        [
          [
            43,
            -26
          ],
          [
            50.5,
            -26
          ],
          [
            50.5,
            -12
          ],
          [
            43,
            -12
          ],
          [
            43,
            -26
          ]
        ]
      ],
      [
        [
          [
            100,
            8
          ],
          [
            109,
            8
          ],
          [
            109,
            23
          ],
          [
            100,
            23
          ],
          [
            100,
            8
          ]
        ]
      ],
      [
        [
          [
            -63,
            4
          ],
          [
            -51,
            4
          ],
          [
            -51,
            6
          ],
          [
            -63,
            6
          ],
          [
            -63,
            4
          ]
        ]
      ]
    ]
  }
}