{
  "type": "Feature",
  "properties": {},
  "geometry": {
    "type": "MultiPolygon",
    "coordinates": [
      [
        [
          [
            -95,
            29
          ],
          [
            -80,
            29
          ],
          [
            -70,
            45
          ],
          [
            -70,
            52
          ],
          [
            -95,
            47
          ],
          [
            -95,
            29
          ]
        ]
      ],
      [
        [
          [
            -73,
            18
          ],
          [
            -71.5,
            18
          ],
          [
            -71.5,
            20
          ],
          [
            -73,
            20
          ],
          [
            -73,
            18
          ]
        ]
      ]
    ]
  }
}