{
  "type": "Feature",
  "properties": {},
  "geometry": {
    "type": "MultiPolygon",
    "coordinates": [
      [
        [
          [
            -72.0,
            -14.0
          ],
          [
            -68.0,
            -14.0
          ],
          [
            -66.0,
            -20.0
          ],
          [
            -70.0,
            -24.0
          ],
          [
            -74.0,
            -18.0
          ],
          [
            -72.0,
            -14.0
          ]
        ]
      ]
    ]
  }
}