{
  "type": "Feature",
  "properties": {},
  "geometry": {
    "type": "MultiPolygon",
    "coordinates": [
      [
        [
          [
            -78.0,
            2.0
          ],
          [
            -75.0,
            2.0
          ],
          [
            -73.0,
            0.0
          ],
          [
            -66.0,
            -20.0
          ],
          [
            -66.0,
            -38.0
          ],
          [
            -72.0,
            -40.0
          ],
          [
            -76.0,
            -32.0
          ],
          [
            -80.0,
            -18.0
          ],
          [
            -80.0,
            2.0
          ],
          [
            -78.0,
            2.0
          ]
        ]
      ]
    ]
  }
}