{
  "type": "Feature",
  "geometry": {
    "type": "MultiPolygon",
    "coordinates": [
      [[[8.5,44.2],[10.5,44.5],[12.5,45.0],[13.5,45.5],[14.5,45.0],[15.5,43.5],[16.5,41.5],[18.0,40.5],[18.5,40.3],[17.5,39.5],[16.5,38.5],[16.0,38.0],[15.8,37.5],[16.1,37.0],[15.5,36.8],[14.5,37.2],[12.0,37.5],[11.0,37.8],[10.5,38.2],[9.5,40.0],[9.5,41.5],[9.8,43.5],[8.5,44.2]]],
      [[[12.5,37.8],[13.5,37.5],[14.5,37.5],[15.7,37.8],[15.8,38.2],[14.0,38.3],[12.5,38.3],[12.0,38.0],[12.5,37.8]]],
      [[[8.2,41.3],[9.8,40.8],[9.8,39.0],[8.8,38.0],[8.1,39.5],[8.2,41.3]]],
      [[[8.5,43.0],[9.6,42.5],[9.5,41.5],[8.5,41.6],[8.5,43.0]]],
      [[[-9.0,43.8],[-6.0,43.8],[-2.0,43.8],[3.2,42.5],[3.5,40.5],[0.5,38.5],[-0.5,37.0],[-3.5,36.0],[-6.5,36.0],[-9.5,38.5],[-9.0,43.8]]],
      [[[5.5,37.0],[9.5,37.2],[11.5,33.5],[10.5,31.5],[7.5,31.0],[5.0,33.0],[5.5,37.0]]],
      [[[19.5,42.5],[21.5,43.0],[24.0,43.5],[26.5,41.5],[26.0,39.5],[24.0,38.5],[22.0,37.0],[21.0,38.0],[20.5,39.5],[19.5,42.5]]],
      [[[26.0,40.5],[28.0,42.0],[30.0,41.5],[32.5,41.5],[35.0,42.0],[38.0,40.0],[36.5,37.0],[34.0,36.5],[29.5,37.5],[27.5,38.5],[26.0,40.5]]]
    ]
  },
  "properties": {}
}
