{
  "type": "Feature",
  "geometry": {
    "type": "MultiPolygon",
    "coordinates": [
      [
        [
          [
            98.0,
            42.0
          ],
          [
            110.5,
            44.5
          ],
          [
            121.0,
            42.0
          ],
          [
            122.0,
            37.0
          ],
          [
            121.5,
            28.0
          ],
          [
            116.0,
            22.5
          ],
          [
            109.0,
            21.0
          ],
          [
            103.5,
            22.5
          ],
          [
            100.5,
            25.0
          ],
          [
            96.0,
            36.0
          ],
          [
            98.0,
            42.0
          ]
        ]
      ],
      [
        [
          [
            76.0,
            44.0
          ],
          [
            84.0,
            46.0
          ],
          [
            92.0,
            44.0
          ],
          [
            94.0,
            38.0
          ],
          [
            88.0,
            35.0
          ],
          [
            80.0,
            37.0
          ],
          [
            76.0,
            40.0
          ],
          [
            76.0,
            44.0
          ]
        ]
      ],
      [
        [
          [
            121.0,
            42.0
          ],
          [
            129.0,
            42.0
          ],
          [
            129.0,
            37.5
          ],
          [
            126.5,
            37.0
          ],
          [
            124.5,
            38.5
          ],
          [
            121.0,
            42.0
          ]
        ]
      ],
      [
        [
          [
            103.5,
            22.5
          ],
          [
            108.5,
            21.0
          ],
          [
            107.5,
            16.5
          ],
          [
            104.0,
            17.0
          ],
          [
            102.5,
            19.5
          ],
          [
            103.5,
            22.5
          ]
        ]
      ]
    ]
  },
  "properties": {
    "year_start": -87,
    "year_end": 220,
    "date_precision": "approximate",
    "confidence_type": "approximate",
    "end_event_type": "partition",
    "source_name": "Manual trace \u2014 approximate historical boundaries",
    "source_license": "CC0"
  }
}