{
  "type": "Feature",
  "properties": {},
  "geometry": {
    "type": "MultiPolygon",
    "coordinates": [
      [
        [
          [
            -125,
            24
          ],
          [
            -67,
            24
          ],
          [
            -67,
            49
          ],
          [
            -125,
            49
          ],
          [
            -125,
            24
          ]
        ]
      ],
      [
        [
          [
            -168,
            51
          ],
          [
            -141,
            51
          ],
          [
            -141,
            71
          ],
          [
            -168,
            71
          ],
          [
            -168,
            51
          ]
        ]
      ],
      [
        [
          [
            -160,
            18
          ],
          [
            -154,
            18
          ],
          [
            -154,
            23
          ],
          [
            -160,
            23
          ],
          [
            -160,
            18
          ]
        ]
      ]
    ]
  }
}