{
  "type": "Feature",
  "properties": {},
  "geometry": {
    "type": "MultiPolygon",
    "coordinates": [
      [
        [
          [
            14,
            45
          ],
          [
            170,
            45
          ],
          [
            170,
            76
          ],
          [
            14,
            76
          ],
          [
            14,
            45
          ]
        ]
      ],
      [
        [
          [
            46,
            35
          ],
          [
            78,
            35
          ],
          [
            78,
            44.5
          ],
          [
            46,
            44.5
          ],
          [
            46,
            35
          ]
        ]
      ]
    ]
  }
}