{
  "type": "Feature",
  "properties": {},
  "geometry": {
    "type": "MultiPolygon",
    "coordinates": [
      [
        [
          [
            20,
            45
          ],
          [
            59.5,
            45
          ],
          [
            59.5,
            76
          ],
          [
            20,
            76
          ],
          [
            20,
            45
          ]
        ]
      ],
      [
        [
          [
            60,
            50
          ],
          [
            86.5,
            50
          ],
          [
            86.5,
            76
          ],
          [
            60,
            76
          ],
          [
            60,
            50
          ]
        ]
      ],
      [
        [
          [
            87,
            52.5
          ],
          [
            170,
            52.5
          ],
          [
            170,
            76
          ],
          [
            87,
            76
          ],
          [
            87,
            52.5
          ]
        ]
      ],
      [
        [
          [
            -168,
            54
          ],
          [
            -141,
            54
          ],
          [
            -141,
            71
          ],
          [
            -168,
            71
          ],
          [
            -168,
            54
          ]
        ]
      ]
    ]
  }
}