{
  "type": "Feature",
  "properties": {},
  "geometry": {
    "type": "MultiPolygon",
    "coordinates": [
      [
        [
          [
            -105,
            14
          ],
          [
            -83,
            14
          ],
          [
            -83,
            24
          ],
          [
            -105,
            24
          ],
          [
            -105,
            14
          ]
        ]
      ],
      [
        [
          [
            -79,
            17
          ],
          [
            -76,
            17
          ],
          [
            -76,
            19
          ],
          [
            -79,
            19
          ],
          [
            -79,
            17
          ]
        ]
      ]
    ]
  }
}