{
  "type": "Feature",
  "properties": {},
  "geometry": {
    "type": "MultiPolygon",
    "coordinates": [
      [
        [
          [
            -117,
            14
          ],
          [
            -83,
            14
          ],
          [
            -83,
            24
          ],
          [
            -117,
            24
          ],
          [
            -117,
            14
          ]
        ]
      ],
      [
        [
          [
            -79,
            5
          ],
          [
            -66,
            5
          ],
          [
            -66,
            19
          ],
          [
            -79,
            19
          ],
          [
            -79,
            5
          ]
        ]
      ],
      [
        [
          [
            -82,
            -33
          ],
          [
            -68,
            -33
          ],
          [
            -68,
            4.5
          ],
          [
            -82,
            4.5
          ],
          [
            -82,
            -33
          ]
        ]
      ],
      [
        [
          [
            119,
            5
          ],
          [
            127,
            5
          ],
          [
            127,
            19
          ],
          [
            119,
            19
          ],
          [
            119,
            5
          ]
        ]
      ]
    ]
  }
}