{
  "type": "Feature",
  "geometry": {
    "type": "MultiPolygon",
    "coordinates": [
      [[[6.5,44.0],[13.5,46.0],[14.0,45.5],[15.0,44.5],[15.5,41.5],[17.8,40.5],[18.5,40.0],[16.5,38.0],[15.5,37.5],[13.5,37.5],[12.0,37.8],[12.0,38.5],[10.0,38.0],[8.5,39.5],[7.5,43.8],[6.5,44.0]]],
      [[[12.5,38.2],[15.5,38.2],[15.5,37.0],[12.5,37.0],[12.5,38.2]]],
      [[[8.5,43.0],[9.6,43.0],[9.6,38.8],[8.5,38.8],[8.5,43.0]]],
      [[[-9.5,44.0],[3.5,43.5],[3.5,36.0],[-5.5,36.0],[-9.5,37.0],[-9.5,44.0]]],
      [[[-5.0,44.0],[8.0,44.0],[8.0,48.0],[5.0,51.0],[2.0,51.0],[-2.0,49.0],[-5.0,47.0],[-5.0,44.0]]],
      [[[7.5,37.0],[11.0,37.0],[11.0,30.0],[7.5,30.0],[7.5,37.0]]]
    ]
  },
  "properties": {}
}
