{
  "type": "Feature",
  "geometry": {
    "type": "MultiPolygon",
    "coordinates": [
      [
        [
          [
            8.5,
            44.2
          ],
          [
            9.5,
            44.3
          ],
          [
            10.5,
            44.5
          ],
          [
            12.5,
            45.0
          ],
          [
            13.5,
            45.5
          ],
          [
            14.5,
            45.0
          ],
          [
            15.0,
            44.0
          ],
          [
            15.5,
            43.5
          ],
          [
            16.0,
            42.5
          ],
          [
            16.5,
            41.5
          ],
          [
            17.5,
            41.0
          ],
          [
            18.0,
            40.5
          ],
          [
            18.5,
            40.3
          ],
          [
            17.5,
            39.5
          ],
          [
            16.5,
            38.5
          ],
          [
            16.0,
            38.0
          ],
          [
            15.8,
            37.5
          ],
          [
            16.1,
            37.0
          ],
          [
            15.5,
            36.8
          ],
          [
            14.5,
            37.2
          ],
          [
            13.0,
            37.7
          ],
          [
            12.0,
            37.5
          ],
          [
            11.0,
            37.8
          ],
          [
            10.5,
            38.2
          ],
          [
            10.0,
            38.8
          ],
          [
            9.5,
            40.0
          ],
          [
            9.5,
            41.5
          ],
          [
            9.8,
            43.5
          ],
          [
            8.5,
            44.2
          ]
        ]
      ]
    ]
  },
  "properties": {
    "year_start": -500,
    "year_end": -264,
    "date_precision": "approximate",
    "confidence_type": "approximate",
    "source_name": "Manual trace \u2014 approximate historical boundaries",
    "source_license": "CC0"
  }
}