{
  "type": "Feature",
  "properties": {},
  "geometry": {
    "type": "MultiPolygon",
    "coordinates": [
      [
        [
          [
            98,
            18
          ],
          [
            110,
            18
          ],
          [
            124,
            22
          ],
          [
            124,
            42
          ],
          [
            98,
            42
          ],
          [
            98,
            18
          ]
        ]
      ],
      [
        [
          [
            87,
            42.5
          ],
          [
            120,
            42.5
          ],
          [
            120,
            52
          ],
          [
            87,
            52
          ],
          [
            87,
            42.5
          ]
        ]
      ]
    ]
  }
}