{
  "type": "Feature",
  "geometry": {
    "type": "MultiPolygon",
    "coordinates": [
      [
        [
          [
            -9.0,
            36.0
          ],
          [
            -5.0,
            36.0
          ],
          [
            3.5,
            41.5
          ],
          [
            -0.5,
            44.0
          ],
          [
            -9.0,
            43.5
          ],
          [
            -9.0,
            36.0
          ]
        ]
      ],
      [
        [
          [
            -5.5,
            30.0
          ],
          [
            35.5,
            30.5
          ],
          [
            36.0,
            22.0
          ],
          [
            24.5,
            22.0
          ],
          [
            12.0,
            23.5
          ],
          [
            -5.5,
            30.0
          ]
        ]
      ],
      [
        [
          [
            34.0,
            37.5
          ],
          [
            38.5,
            38.0
          ],
          [
            65.0,
            44.0
          ],
          [
            74.0,
            35.0
          ],
          [
            65.0,
            23.0
          ],
          [
            55.0,
            22.0
          ],
          [
            44.0,
            12.0
          ],
          [
            40.0,
            12.0
          ],
          [
            37.0,
            16.0
          ],
          [
            37.0,
            29.0
          ],
          [
            35.5,
            30.5
          ],
          [
            35.5,
            35.0
          ],
          [
            34.0,
            37.5
          ]
        ]
      ]
    ]
  },
  "properties": {
    "year_start": 661,
    "year_end": 750,
    "date_precision": "approximate",
    "confidence_type": "approximate",
    "end_event_type": "collapse",
    "source_name": "Manual trace \u2014 approximate historical boundaries",
    "source_license": "CC0"
  }
}