{
  "type": "Feature",
  "properties": {},
  "geometry": {
    "type": "MultiPolygon",
    "coordinates": [
      [
        [
          [
            70,
            35
          ],
          [
            97.5,
            35
          ],
          [
            97.5,
            52
          ],
          [
            70,
            52
          ],
          [
            70,
            35
          ]
        ]
      ],
      [
        [
          [
            98,
            20
          ],
          [
            135,
            20
          ],
          [
            135,
            52
          ],
          [
            98,
            52
          ],
          [
            98,
            20
          ]
        ]
      ]
    ]
  }
}