{
  "type": "Feature",
  "geometry": {
    "type": "MultiPolygon",
    "coordinates": [
      [
        [
          [
            110.0,
            22.0
          ],
          [
            70.0,
            19.0
          ],
          [
            52.0,
            23.0
          ],
          [
            40.0,
            35.0
          ],
          [
            37.0,
            42.0
          ],
          [
            39.44444444444444,
            48.51851851851852
          ],
          [
            44.0,
            47.0
          ],
          [
            60.0,
            45.0
          ],
          [
            68.39673913043478,
            50.59782608695652
          ],
          [
            135.0,
            52.0
          ],
          [
            135.0,
            35.0
          ],
          [
            110.0,
            22.0
          ]
        ]
      ],
      [
        [
          [
            35.0,
            50.0
          ],
          [
            35.0,
            55.0
          ],
          [
            65.0,
            60.0
          ],
          [
            75.0,
            55.0
          ],
          [
            68.39673913043478,
            50.59782608695652
          ],
          [
            40.0,
            50.0
          ],
          [
            39.44444444444444,
            48.51851851851852
          ],
          [
            35.0,
            50.0
          ]
        ]
      ]
    ]
  },
  "properties": {
    "year_start": 1260,
    "year_end": 1368,
    "date_precision": "approximate",
    "confidence_type": "approximate",
    "end_event_type": "partition",
    "source_name": "Manual trace \u2014 approximate historical boundaries",
    "source_license": "CC0"
  }
}