{
  "type": "Feature",
  "properties": {},
  "geometry": {
    "type": "MultiPolygon",
    "coordinates": [
      [
        [
          [
            60.0,
            20.0
          ],
          [
            92.0,
            20.0
          ],
          [
            92.0,
            36.0
          ],
          [
            70.0,
            38.0
          ],
          [
            60.0,
            34.0
          ],
          [
            60.0,
            20.0
          ]
        ]
      ]
    ]
  }
}