{
  "type": "Feature",
  "properties": {},
  "geometry": {
    "type": "MultiPolygon",
    "coordinates": [
      [
        [
          [
            70.0,
            22.0
          ],
          [
            88.0,
            22.0
          ],
          [
            88.0,
            35.0
          ],
          [
            72.0,
            36.0
          ],
          [
            68.0,
            30.0
          ],
          [
            70.0,
            22.0
          ]
        ]
      ]
    ]
  }
}