{
  "type": "Feature",
  "properties": {},
  "geometry": {
    "type": "MultiPolygon",
    "coordinates": [
      [
        [
          [
            -12.0,
            9.0
          ],
          [
            2.0,
            9.0
          ],
          [
            4.0,
            15.0
          ],
          [
            -4.0,
            20.0
          ],
          [
            -10.0,
            18.0
          ],
          [
            -14.0,
            13.0
          ],
          [
            -12.0,
            9.0
          ]
        ]
      ]
    ]
  }
}