{
  "type": "Feature",
  "properties": {},
  "geometry": {
    "type": "MultiPolygon",
    "coordinates": [
      [
        [
          [
            -18.0,
            10.0
          ],
          [
            4.0,
            10.0
          ],
          [
            6.0,
            17.0
          ],
          [
            -2.0,
            22.0
          ],
          [
            -10.0,
            22.0
          ],
          [
            -18.0,
            16.0
          ],
          [
            -18.0,
            10.0
          ]
        ]
      ]
    ]
  }
}