{
  "type": "Feature",
  "geometry": {
    "type": "MultiPolygon",
    "coordinates": [
      [
        [
          [
            100.0,
            42.0
          ],
          [
            112.0,
            44.5
          ],
          [
            121.0,
            42.0
          ],
          [
            122.0,
            37.0
          ],
          [
            121.5,
            28.0
          ],
          [
            116.0,
            22.0
          ],
          [
            109.0,
            21.0
          ],
          [
            103.5,
            22.5
          ],
          [
            100.5,
            25.0
          ],
          [
            98.0,
            33.0
          ],
          [
            100.0,
            42.0
          ]
        ]
      ],
      [
        [
          [
            103.5,
            22.5
          ],
          [
            108.5,
            21.0
          ],
          [
            107.5,
            17.0
          ],
          [
            104.0,
            17.5
          ],
          [
            102.5,
            20.0
          ],
          [
            103.5,
            22.5
          ]
        ]
      ]
    ]
  },
  "properties": {
    "year_start": 755,
    "year_end": 907,
    "date_precision": "approximate",
    "confidence_type": "approximate",
    "end_event_type": "collapse",
    "source_name": "Manual trace \u2014 approximate historical boundaries",
    "source_license": "CC0"
  }
}