{
  "type": "Feature",
  "geometry": {
    "type": "MultiPolygon",
    "coordinates": [
      [
        [
          [
            98.0,
            44.0
          ],
          [
            112.0,
            47.0
          ],
          [
            121.0,
            43.0
          ],
          [
            122.0,
            38.0
          ],
          [
            121.5,
            28.0
          ],
          [
            116.0,
            22.0
          ],
          [
            109.0,
            21.0
          ],
          [
            103.5,
            22.5
          ],
          [
            100.5,
            25.0
          ],
          [
            97.0,
            33.0
          ],
          [
            98.0,
            44.0
          ]
        ]
      ],
      [
        [
          [
            62.0,
            44.0
          ],
          [
            76.0,
            45.0
          ],
          [
            84.0,
            47.0
          ],
          [
            90.0,
            44.0
          ],
          [
            92.0,
            39.0
          ],
          [
            86.0,
            35.0
          ],
          [
            78.0,
            34.0
          ],
          [
            72.0,
            37.0
          ],
          [
            66.0,
            40.0
          ],
          [
            62.0,
            42.0
          ],
          [
            62.0,
            44.0
          ]
        ]
      ],
      [
        [
          [
            121.0,
            43.0
          ],
          [
            129.0,
            42.0
          ],
          [
            129.0,
            37.0
          ],
          [
            126.0,
            35.5
          ],
          [
            124.5,
            38.0
          ],
          [
            121.0,
            43.0
          ]
        ]
      ],
      [
        [
          [
            103.5,
            22.5
          ],
          [
            108.5,
            21.0
          ],
          [
            107.5,
            17.0
          ],
          [
            104.0,
            17.5
          ],
          [
            102.5,
            20.0
          ],
          [
            103.5,
            22.5
          ]
        ]
      ]
    ]
  },
  "properties": {
    "year_start": 618,
    "year_end": 755,
    "date_precision": "approximate",
    "confidence_type": "approximate",
    "source_name": "Manual trace \u2014 approximate historical boundaries",
    "source_license": "CC0"
  }
}