{
  "type": "Feature",
  "properties": {},
  "geometry": {
    "type": "MultiPolygon",
    "coordinates": [
      [
        [
          [
            129,
            31
          ],
          [
            146,
            31
          ],
          [
            146,
            46
          ],
          [
            129,
            46
          ],
          [
            129,
            31
          ]
        ]
      ],
      [
        [
          [
            124,
            33
          ],
          [
            128.5,
            33
          ],
          [
            128.5,
            43
          ],
          [
            124,
            43
          ],
          [
            124,
            33
          ]
        ]
      ],
      [
        [
          [
            120,
            22
          ],
          [
            122,
            22
          ],
          [
            122,
            25
          ],
          [
            120,
            25
          ],
          [
            120,
            22
          ]
        ]
      ],
      [
        [
          [
            118,
            43.5
          ],
          [
            128.5,
            43.5
          ],
          [
            128.5,
            53
          ],
          [
            118,
            53
          ],
          [
            118,
            43.5
          ]
        ]
      ],
      [
        [
          [
            95,
            -10
          ],
          [
            126,
            -10
          ],
          [
            126,
            20
          ],
          [
            95,
            20
          ],
          [
            95,
            -10
          ]
        ]
      ],
      [
        [
          [
            140,
            5
          ],
          [
            160,
            5
          ],
          [
            160,
            15
          ],
          [
            140,
            15
          ],
          [
            140,
            5
          ]
        ]
      ]
    ]
  }
}