{
  "type": "Feature",
  "properties": {},
  "geometry": {
    "type": "MultiPolygon",
    "coordinates": [
      [
        [
          [
            129,
            31
          ],
          [
            146,
            31
          ],
          [
            146,
            46
          ],
          [
            129,
            46
          ],
          [
            129,
            31
          ]
        ]
      ],
      [
        [
          [
            124,
            33
          ],
          [
            128.5,
            33
          ],
          [
            128.5,
            43
          ],
          [
            124,
            43
          ],
          [
            124,
            33
          ]
        ]
      ],
      [
        [
          [
            120,
            22
          ],
          [
            122,
            22
          ],
          [
            122,
            25
          ],
          [
            120,
            25
          ],
          [
            120,
            22
          ]
        ]
      ]
    ]
  }
}