{
  "type": "Feature",
  "geometry": {
    "type": "MultiPolygon",
    "coordinates": [
      [
        [
          [
            38.5,
            37.0
          ],
          [
            36.5,
            36.0
          ],
          [
            29.0,
            36.0
          ],
          [
            26.5,
            37.5
          ],
          [
            26.0,
            39.0
          ],
          [
            26.0,
            40.5
          ],
          [
            26.5,
            41.0
          ],
          [
            26.6,
            41.05
          ],
          [
            38.0,
            42.0
          ],
          [
            40.0,
            39.0
          ],
          [
            38.5,
            37.0
          ]
        ]
      ],
      [
        [
          [
            22.5,
            37.0
          ],
          [
            20.0,
            38.0
          ],
          [
            19.5,
            41.5
          ],
          [
            14.5,
            44.5
          ],
          [
            14.0,
            45.5
          ],
          [
            30.0,
            46.0
          ],
          [
            32.0,
            44.0
          ],
          [
            30.5,
            43.0
          ],
          [
            26.6,
            41.05
          ],
          [
            26.0,
            41.0
          ],
          [
            26.0,
            40.5
          ],
          [
            22.5,
            37.0
          ]
        ]
      ]
    ]
  },
  "properties": {
    "year_start": 610,
    "year_end": 1071,
    "date_precision": "approximate",
    "confidence_type": "approximate",
    "source_name": "Manual trace \u2014 approximate historical boundaries",
    "source_license": "CC0"
  }
}