{
  "type": "Feature",
  "geometry": {
    "type": "MultiPolygon",
    "coordinates": [
      [
        [
          [
            36.5,
            32.0
          ],
          [
            35.5,
            29.5
          ],
          [
            35.5,
            22.0
          ],
          [
            24.5,
            22.0
          ],
          [
            24.0,
            31.0
          ],
          [
            32.0,
            31.5
          ],
          [
            34.857142857142854,
            35.58163265306123
          ],
          [
            36.0,
            35.5
          ],
          [
            37.5,
            36.5
          ],
          [
            38.645833333333336,
            36.958333333333336
          ],
          [
            42.0,
            36.0
          ],
          [
            42.5,
            33.0
          ],
          [
            38.0,
            33.5
          ],
          [
            36.5,
            32.0
          ]
        ]
      ],
      [
        [
          [
            29.0,
            36.0
          ],
          [
            26.5,
            37.5
          ],
          [
            26.0,
            39.0
          ],
          [
            26.0,
            40.5
          ],
          [
            26.5,
            41.0
          ],
          [
            26.6,
            41.05
          ],
          [
            38.0,
            42.0
          ],
          [
            40.5,
            40.0
          ],
          [
            40.0,
            37.5
          ],
          [
            38.645833333333336,
            36.958333333333336
          ],
          [
            38.5,
            37.0
          ],
          [
            35.5,
            36.5
          ],
          [
            34.857142857142854,
            35.58163265306123
          ],
          [
            29.0,
            36.0
          ]
        ]
      ],
      [
        [
          [
            22.5,
            37.0
          ],
          [
            20.0,
            38.0
          ],
          [
            19.5,
            41.5
          ],
          [
            14.5,
            44.5
          ],
          [
            14.0,
            45.5
          ],
          [
            30.0,
            46.0
          ],
          [
            32.0,
            44.0
          ],
          [
            30.5,
            43.0
          ],
          [
            26.6,
            41.05
          ],
          [
            26.0,
            41.0
          ],
          [
            26.0,
            40.5
          ],
          [
            22.5,
            37.0
          ]
        ]
      ]
    ]
  },
  "properties": {
    "year_start": 330,
    "year_end": 610,
    "date_precision": "approximate",
    "confidence_type": "approximate",
    "source_name": "Manual trace \u2014 approximate historical boundaries",
    "source_license": "CC0"
  }
}