{
  "type": "Feature",
  "geometry": {
    "type": "MultiPolygon",
    "coordinates": [
      [
        [
          [
            25.0,
            42.0
          ],
          [
            32.0,
            43.0
          ],
          [
            30.5,
            41.0
          ],
          [
            26.5,
            40.5
          ],
          [
            22.5,
            37.0
          ],
          [
            21.0,
            38.0
          ],
          [
            22.0,
            40.5
          ],
          [
            25.0,
            42.0
          ]
        ]
      ],
      [
        [
          [
            26.5,
            40.5
          ],
          [
            32.0,
            41.0
          ],
          [
            32.0,
            38.0
          ],
          [
            27.0,
            37.0
          ],
          [
            26.5,
            38.5
          ],
          [
            26.5,
            40.5
          ]
        ]
      ]
    ]
  },
  "properties": {
    "year_start": 1071,
    "year_end": 1453,
    "date_precision": "approximate",
    "confidence_type": "approximate",
    "end_event_type": "conquest",
    "source_name": "Manual trace \u2014 approximate historical boundaries",
    "source_license": "CC0"
  }
}