{
  "type": "Feature",
  "geometry": {
    "type": "MultiPolygon",
    "coordinates": [
      [
        [
          [
            24.5,
            24.0
          ],
          [
            35.5,
            24.0
          ],
          [
            36.0,
            30.0
          ],
          [
            36.5,
            32.0
          ],
          [
            38.5,
            31.0
          ],
          [
            39.484848484848484,
            30.921212121212122
          ],
          [
            40.5,
            29.5
          ],
          [
            41.14423076923077,
            30.78846153846154
          ],
          [
            51.0,
            30.0
          ],
          [
            51.0,
            22.0
          ],
          [
            24.5,
            22.0
          ],
          [
            24.5,
            24.0
          ]
        ]
      ],
      [
        [
          [
            38.0,
            33.0
          ],
          [
            36.5,
            36.0
          ],
          [
            28.0,
            37.0
          ],
          [
            26.5,
            38.5
          ],
          [
            26.5,
            40.27272727272727
          ],
          [
            28.0,
            41.5
          ],
          [
            28.4,
            42.0
          ],
          [
            44.0,
            42.0
          ],
          [
            44.0,
            36.5
          ],
          [
            41.14423076923077,
            30.78846153846154
          ],
          [
            39.484848484848484,
            30.921212121212122
          ],
          [
            38.0,
            33.0
          ]
        ]
      ],
      [
        [
          [
            22.5,
            37.0
          ],
          [
            20.0,
            38.5
          ],
          [
            19.0,
            41.5
          ],
          [
            14.0,
            46.5
          ],
          [
            27.0,
            47.0
          ],
          [
            30.0,
            44.0
          ],
          [
            28.4,
            42.0
          ],
          [
            26.5,
            42.0
          ],
          [
            26.5,
            40.27272727272727
          ],
          [
            22.5,
            37.0
          ]
        ]
      ],
      [
        [
          [
            -2.0,
            35.5
          ],
          [
            16.0,
            33.5
          ],
          [
            16.0,
            27.0
          ],
          [
            12.0,
            27.0
          ],
          [
            -2.0,
            32.0
          ],
          [
            -2.0,
            35.5
          ]
        ]
      ]
    ]
  },
  "properties": {
    "year_start": 1683,
    "year_end": 1922,
    "date_precision": "approximate",
    "confidence_type": "approximate",
    "end_event_type": "administrative_reorganization",
    "source_name": "Manual trace \u2014 approximate historical boundaries",
    "source_license": "CC0"
  }
}