{
  "type": "Feature",
  "geometry": {
    "type": "MultiPolygon",
    "coordinates": [
      [
        [
          [
            38.0,
            37.5
          ],
          [
            36.5,
            36.0
          ],
          [
            29.0,
            36.0
          ],
          [
            26.5,
            37.5
          ],
          [
            26.5,
            41.0
          ],
          [
            28.64516129032258,
            41.61290322580645
          ],
          [
            36.0,
            42.0
          ],
          [
            38.0,
            39.5
          ],
          [
            38.0,
            37.5
          ]
        ]
      ],
      [
        [
          [
            22.5,
            37.0
          ],
          [
            20.0,
            38.5
          ],
          [
            19.5,
            41.5
          ],
          [
            14.0,
            45.5
          ],
          [
            30.0,
            46.0
          ],
          [
            32.0,
            44.0
          ],
          [
            30.0,
            42.0
          ],
          [
            28.64516129032258,
            41.61290322580645
          ],
          [
            26.5,
            41.5
          ],
          [
            26.5,
            41.0
          ],
          [
            22.5,
            37.0
          ]
        ]
      ]
    ]
  },
  "properties": {
    "year_start": 1299,
    "year_end": 1453,
    "date_precision": "approximate",
    "confidence_type": "approximate",
    "source_name": "Manual trace \u2014 approximate historical boundaries",
    "source_license": "CC0"
  }
}