{
  "type": "Feature",
  "geometry": {
    "type": "MultiPolygon",
    "coordinates": [
      [
        [
          [
            24.5,
            22.0
          ],
          [
            24.5,
            24.0
          ],
          [
            35.5,
            24.0
          ],
          [
            36.0,
            30.0
          ],
          [
            36.5,
            32.0
          ],
          [
            37.0,
            30.5
          ],
          [
            38.5,
            31.0
          ],
          [
            39.42857142857143,
            31.0
          ],
          [
            40.5,
            29.5
          ],
          [
            41.25,
            31.0
          ],
          [
            43.0,
            31.0
          ],
          [
            51.0,
            30.0
          ],
          [
            51.0,
            22.0
          ],
          [
            24.5,
            22.0
          ]
        ]
      ],
      [
        [
          [
            38.0,
            33.0
          ],
          [
            36.5,
            36.0
          ],
          [
            28.0,
            37.0
          ],
          [
            26.5,
            38.5
          ],
          [
            26.5,
            40.27272727272727
          ],
          [
            28.0,
            41.5
          ],
          [
            28.8,
            42.0
          ],
          [
            44.0,
            42.0
          ],
          [
            44.0,
            36.5
          ],
          [
            41.25,
            31.0
          ],
          [
            39.42857142857143,
            31.0
          ],
          [
            38.0,
            33.0
          ]
        ]
      ],
      [
        [
          [
            22.5,
            37.0
          ],
          [
            20.0,
            38.5
          ],
          [
            19.0,
            42.0
          ],
          [
            14.0,
            48.0
          ],
          [
            32.0,
            48.5
          ],
          [
            35.0,
            47.5
          ],
          [
            32.0,
            44.0
          ],
          [
            28.8,
            42.0
          ],
          [
            26.5,
            42.0
          ],
          [
            26.5,
            40.27272727272727
          ],
          [
            22.5,
            37.0
          ]
        ]
      ],
      [
        [
          [
            -2.0,
            35.5
          ],
          [
            24.5,
            33.5
          ],
          [
            24.5,
            27.0
          ],
          [
            12.0,
            27.0
          ],
          [
            -2.0,
            32.0
          ],
          [
            -2.0,
            35.5
          ]
        ]
      ]
    ]
  },
  "properties": {
    "year_start": 1453,
    "year_end": 1683,
    "date_precision": "approximate",
    "confidence_type": "approximate",
    "source_name": "Manual trace \u2014 approximate historical boundaries",
    "source_license": "CC0"
  }
}