{
  "type": "Feature",
  "geometry": {
    "type": "MultiPolygon",
    "coordinates": [
      [[[6.5,44.0],[13.5,46.0],[14.0,45.5],[15.0,44.5],[15.5,41.5],[17.8,40.5],[18.5,40.0],[16.5,38.0],[15.5,37.5],[13.5,37.5],[12.0,37.8],[12.0,38.5],[10.0,38.0],[8.5,39.5],[7.5,43.8],[6.5,44.0]]],
      [[[12.5,38.2],[15.5,38.2],[15.5,37.0],[12.5,37.0],[12.5,38.2]]],
      [[[8.5,43.0],[9.6,43.0],[9.6,38.8],[8.5,38.8],[8.5,43.0]]],
      [[[-9.5,44.0],[3.5,43.5],[3.5,36.0],[-5.5,36.0],[-9.5,37.0],[-9.5,44.0]]],
      [[[-5.0,44.0],[8.0,44.0],[8.0,48.0],[6.5,51.5],[2.5,51.5],[-2.0,51.0],[-5.0,48.0],[-5.0,44.0]]],
      [[[-5.5,50.0],[1.5,51.5],[0.5,53.0],[-3.0,57.0],[-5.5,50.0]]],
      [[[-6.0,35.5],[13.5,37.0],[13.5,30.0],[5.0,30.0],[-1.5,31.0],[-6.0,33.0],[-6.0,35.5]]],
      [[[19.5,42.0],[30.5,46.0],[30.5,43.0],[30.0,42.0],[28.5,36.0],[22.0,36.0],[20.0,37.5],[19.5,42.0]]],
      [[[26.0,42.0],[36.5,42.0],[36.5,36.0],[26.0,36.0],[26.0,42.0]]],
      [[[36.0,37.0],[42.5,37.0],[42.5,30.0],[35.5,30.0],[34.5,31.5],[36.0,37.0]]],
      [[[25.0,31.5],[35.0,31.5],[35.0,22.0],[25.0,22.0],[25.0,31.5]]]
    ]
  },
  "properties": {}
}
