{
  "type": "FeatureCollection",
  "features": [
    {
      "type": "Feature",
      "properties": {"name": "Nile", "name_alt": "Neilos", "importance": 10, "source_name": "Natural Earth"},
      "geometry": {"type": "LineString", "coordinates": [[31.5,30.0],[31.3,29.5],[31.0,27.5],[32.5,24.0],[33.5,22.0],[32.5,19.5],[32.0,15.5],[33.5,12.0],[35.5,11.5],[37.0,9.0],[38.5,8.0],[37.5,7.0],[36.0,5.0],[34.0,2.5],[33.0,1.0],[31.5,-1.0],[30.0,-2.0],[30.5,-4.0],[29.5,-6.0],[29.5,-8.0],[29.0,-11.0]]}
    },
    {
      "type": "Feature",
      "properties": {"name": "Tigris", "name_alt": "Dijla", "importance": 9, "source_name": "Natural Earth"},
      "geometry": {"type": "LineString", "coordinates": [[37.5,38.5],[37.0,37.5],[36.5,36.0],[43.5,34.0],[45.5,32.5],[47.4,30.9],[47.5,30.0],[48.0,29.5]]}
    },
    {
      "type": "Feature",
      "properties": {"name": "Euphrates", "name_alt": "Firat", "importance": 9, "source_name": "Natural Earth"},
      "geometry": {"type": "LineString", "coordinates": [[39.0,39.5],[38.5,38.5],[37.5,37.5],[38.0,36.5],[39.0,36.5],[40.5,36.0],[42.0,34.5],[44.0,33.0],[46.0,31.5],[47.5,30.5],[48.0,29.5]]}
    },
    {
      "type": "Feature",
      "properties": {"name": "Danube", "name_alt": "Ister", "importance": 9, "source_name": "Natural Earth"},
      "geometry": {"type": "LineString", "coordinates": [[8.0,48.0],[10.5,48.5],[13.0,48.5],[15.0,48.0],[16.5,48.0],[17.5,47.5],[18.5,47.5],[19.0,46.0],[19.5,45.5],[20.5,45.5],[22.0,45.5],[24.0,45.5],[26.0,45.0],[28.0,44.5],[29.5,45.5],[30.0,46.0],[29.5,46.5],[30.5,45.5]]}
    },
    {
      "type": "Feature",
      "properties": {"name": "Rhine", "name_alt": "Rhenus", "importance": 8, "source_name": "Natural Earth"},
      "geometry": {"type": "LineString", "coordinates": [[9.5,47.5],[8.5,47.8],[7.5,48.0],[7.0,49.0],[7.5,50.0],[6.5,51.0],[5.5,51.5],[4.5,52.0],[4.0,52.5]]}
    },
    {
      "type": "Feature",
      "properties": {"name": "Tiber", "name_alt": "Tiberis", "importance": 8, "source_name": "Natural Earth"},
      "geometry": {"type": "LineString", "coordinates": [[12.0,43.5],[12.2,42.5],[12.4,42.0],[12.5,41.9],[12.3,41.5],[12.2,41.0]]}
    },
    {
      "type": "Feature",
      "properties": {"name": "Indus", "name_alt": "Sindhu", "importance": 9, "source_name": "Natural Earth"},
      "geometry": {"type": "LineString", "coordinates": [[76.5,35.5],[74.0,34.5],[72.5,34.0],[71.5,33.0],[70.5,29.5],[69.5,27.0],[68.0,25.0],[67.0,24.0],[67.5,23.5]]}
    },
    {
      "type": "Feature",
      "properties": {"name": "Ganges", "name_alt": "Ganga", "importance": 8, "source_name": "Natural Earth"},
      "geometry": {"type": "LineString", "coordinates": [[79.0,30.5],[79.5,29.0],[80.0,27.5],[83.0,27.0],[85.5,25.5],[87.5,24.5],[89.0,24.0],[89.5,22.5],[90.5,21.5]]}
    },
    {
      "type": "Feature",
      "properties": {"name": "Po", "name_alt": "Padus", "importance": 7, "source_name": "Natural Earth"},
      "geometry": {"type": "LineString", "coordinates": [[7.0,44.5],[9.0,45.0],[10.5,45.0],[11.5,45.0],[12.5,45.0],[13.5,45.0],[12.4,44.9]]}
    },
    {
      "type": "Feature",
      "properties": {"name": "Rhone", "name_alt": "Rhodanus", "importance": 7, "source_name": "Natural Earth"},
      "geometry": {"type": "LineString", "coordinates": [[8.0,46.5],[7.5,46.0],[6.5,45.5],[5.5,45.0],[4.8,45.7],[4.5,44.5],[4.0,43.7],[3.5,43.5]]}
    },
    {
      "type": "Feature",
      "properties": {"name": "Jordan", "name_alt": "Yarden", "importance": 7, "source_name": "Natural Earth"},
      "geometry": {"type": "LineString", "coordinates": [[35.6,33.2],[35.5,32.5],[35.5,32.0],[35.6,31.8],[35.5,31.5],[35.5,31.0]]}
    }
  ]
}
