{
  "type": "Feature",
  "geometry": {
    "type": "MultiPolygon",
    "coordinates": [
      [
        [
          [
            66.0,
            36.0
          ],
          [
            76.0,
            37.5
          ],
          [
            82.0,
            36.0
          ],
          [
            88.0,
            34.0
          ],
          [
            92.0,
            27.0
          ],
          [
            88.0,
            22.0
          ],
          [
            84.0,
            14.0
          ],
          [
            79.0,
            9.5
          ],
          [
            77.0,
            8.5
          ],
          [
            74.0,
            12.0
          ],
          [
            72.5,
            18.0
          ],
          [
            68.5,
            22.0
          ],
          [
            65.5,
            28.0
          ],
          [
            64.5,
            32.0
          ],
          [
            66.0,
            36.0
          ]
        ]
      ]
    ]
  },
  "properties": {
    "year_start": -268,
    "year_end": -185,
    "date_precision": "approximate",
    "confidence_type": "approximate",
    "end_event_type": "collapse",
    "source_name": "Manual trace \u2014 approximate historical boundaries",
    "source_license": "CC0"
  }
}