{
  "type": "Feature",
  "geometry": {
    "type": "MultiPolygon",
    "coordinates": [
      [
        [
          [
            66.0,
            36.0
          ],
          [
            76.0,
            37.5
          ],
          [
            82.0,
            36.0
          ],
          [
            88.0,
            34.0
          ],
          [
            92.0,
            27.0
          ],
          [
            88.0,
            22.0
          ],
          [
            82.0,
            16.0
          ],
          [
            76.0,
            14.5
          ],
          [
            73.5,
            16.0
          ],
          [
            70.5,
            22.0
          ],
          [
            65.5,
            28.0
          ],
          [
            64.5,
            32.0
          ],
          [
            66.0,
            36.0
          ]
        ]
      ]
    ]
  },
  "properties": {
    "year_start": -322,
    "year_end": -268,
    "date_precision": "approximate",
    "confidence_type": "approximate",
    "source_name": "Manual trace \u2014 approximate historical boundaries",
    "source_license": "CC0"
  }
}