{
  "type": "Feature",
  "properties": {},
  "geometry": {
    "type": "MultiPolygon",
    "coordinates": [
      [
        [
          [
            -9.5,
            36.9
          ],
          [
            -6.2,
            36.9
          ],
          [
            -6.2,
            42.2
          ],
          [
            -9.5,
            42.2
          ],
          [
            -9.5,
            36.9
          ]
        ]
      ],
      [
        [
          [
            -68,
            -33
          ],
          [
            -35,
            -33
          ],
          [
            -35,
            3.5
          ],
          [
            -68,
            3.5
          ],
          [
            -68,
            -33
          ]
        ]
      ],
      [
        [
          [
            12,
            -18
          ],
          [
            21.5,
            -18
          ],
          [
            21.5,
            -5
          ],
          [
            12,
            -5
          ],
          [
            12,
            -18
          ]
        ]
      ],
      [
        [
          [
            33,
            -26
          ],
          [
            41,
            -26
          ],
          [
            41,
            -10.5
          ],
          [
            33,
            -10.5
          ],
          [
            33,
            -26
          ]
        ]
      ]
    ]
  }
}