{
  "type": "Feature",
  "geometry": {
    "type": "MultiPolygon",
    "coordinates": [
      [
        [
          [
            24.0,
            24.0
          ],
          [
            25.0,
            31.5
          ],
          [
            32.5,
            31.0
          ],
          [
            34.5,
            29.5
          ],
          [
            32.5,
            24.0
          ],
          [
            25.0,
            22.0
          ],
          [
            24.0,
            24.0
          ]
        ]
      ],
      [
        [
          [
            35.470588235294116,
            36.794117647058826
          ],
          [
            36.5,
            37.0
          ],
          [
            36.9,
            37.1
          ],
          [
            38.5,
            37.214285714285715
          ],
          [
            38.5,
            33.5
          ],
          [
            39.0,
            33.0
          ],
          [
            36.5,
            33.0
          ],
          [
            35.0,
            33.5
          ],
          [
            35.470588235294116,
            36.794117647058826
          ]
        ]
      ],
      [
        [
          [
            34.0,
            36.5
          ],
          [
            29.5,
            37.5
          ],
          [
            27.5,
            38.5
          ],
          [
            26.0,
            40.5
          ],
          [
            28.0,
            42.0
          ],
          [
            30.0,
            41.5
          ],
          [
            35.0,
            42.0
          ],
          [
            38.5,
            40.0
          ],
          [
            38.5,
            37.5
          ],
          [
            36.9,
            37.1
          ],
          [
            35.5,
            37.0
          ],
          [
            35.470588235294116,
            36.794117647058826
          ],
          [
            34.0,
            36.5
          ]
        ]
      ],
      [
        [
          [
            42.5,
            37.5
          ],
          [
            38.5,
            37.214285714285715
          ],
          [
            38.5,
            37.5
          ],
          [
            42.5,
            37.5
          ]
        ]
      ],
      [
        [
          [
            44.0,
            37.38461538461539
          ],
          [
            44.0,
            33.5
          ],
          [
            44.0,
            30.0
          ],
          [
            46.5,
            30.0
          ],
          [
            44.0,
            29.0
          ],
          [
            41.0,
            31.0
          ],
          [
            39.0,
            33.0
          ],
          [
            40.5,
            33.0
          ],
          [
            43.0,
            35.5
          ],
          [
            42.5,
            37.5
          ],
          [
            44.0,
            37.38461538461539
          ]
        ]
      ],
      [
        [
          [
            44.0,
            39.5
          ],
          [
            49.0,
            37.0
          ],
          [
            44.0,
            37.38461538461539
          ],
          [
            44.0,
            39.5
          ]
        ]
      ],
      [
        [
          [
            57.0,
            38.0
          ],
          [
            63.5,
            35.5
          ],
          [
            63.44,
            34.96
          ],
          [
            60.5,
            33.0
          ],
          [
            60.5,
            25.5
          ],
          [
            57.0,
            25.5
          ],
          [
            50.0,
            27.5
          ],
          [
            47.0,
            30.0
          ],
          [
            46.5,
            30.0
          ],
          [
            49.0,
            34.0
          ],
          [
            49.0,
            37.0
          ],
          [
            57.0,
            38.0
          ]
        ]
      ],
      [
        [
          [
            63.5,
            35.0
          ],
          [
            66.0,
            37.0
          ],
          [
            71.0,
            36.5
          ],
          [
            68.0,
            28.0
          ],
          [
            63.5,
            26.0
          ],
          [
            60.5,
            25.5
          ],
          [
            63.0,
            31.0
          ],
          [
            63.44,
            34.96
          ],
          [
            63.5,
            35.0
          ]
        ]
      ],
      [
        [
          [
            62.0,
            38.0
          ],
          [
            57.0,
            38.0
          ],
          [
            56.0,
            38.0
          ],
          [
            63.5,
            42.0
          ],
          [
            68.5,
            42.0
          ],
          [
            72.0,
            40.0
          ],
          [
            68.0,
            38.5
          ],
          [
            66.5,
            37.5
          ],
          [
            62.0,
            38.0
          ]
        ]
      ]
    ]
  },
  "properties": {
    "year_start": -400,
    "year_end": -330,
    "date_precision": "approximate",
    "confidence_type": "approximate",
    "source_name": "Manual trace \u2014 approximate historical boundaries",
    "source_license": "CC0",
    "end_event_type": "conquest"
  }
}