{
  "type": "Feature",
  "geometry": {
    "type": "MultiPolygon",
    "coordinates": [
      [
        [
          [
            38.0,
            35.0
          ],
          [
            48.5,
            36.0
          ],
          [
            48.5,
            29.0
          ],
          [
            43.0,
            27.0
          ],
          [
            39.0,
            29.0
          ],
          [
            38.0,
            32.0
          ],
          [
            38.0,
            35.0
          ]
        ]
      ]
    ]
  },
  "properties": {
    "year_start": 900,
    "year_end": 1258,
    "date_precision": "approximate",
    "confidence_type": "approximate",
    "end_event_type": "conquest",
    "source_name": "Manual trace \u2014 approximate historical boundaries",
    "source_license": "CC0"
  }
}