{
  "type": "Feature",
  "properties": {},
  "geometry": {
    "type": "MultiPolygon",
    "coordinates": [
      [
        [
          [
            -104.0,
            16.0
          ],
          [
            -94.0,
            16.0
          ],
          [
            -92.0,
            18.0
          ],
          [
            -94.0,
            22.0
          ],
          [
            -100.0,
            22.0
          ],
          [
            -104.0,
            20.0
          ],
          [
            -104.0,
            16.0
          ]
        ]
      ]
    ]
  }
}