{
  "type": "Feature",
  "properties": {},
  "geometry": {
    "type": "MultiPolygon",
    "coordinates": [
      [
        [
          [
            -8.0,
            11.0
          ],
          [
            6.0,
            11.0
          ],
          [
            14.0,
            14.0
          ],
          [
            10.0,
            20.0
          ],
          [
            -2.0,
            22.0
          ],
          [
            -8.0,
            18.0
          ],
          [
            -10.0,
            14.0
          ],
          [
            -8.0,
            11.0
          ]
        ]
      ]
    ]
  }
}