{
  "type": "Feature",
  "geometry": {
    "type": "MultiPolygon",
    "coordinates": [
      [
        [
          [
            13.0,
            31.0
          ],
          [
            11.5,
            33.5
          ],
          [
            20.5,
            32.5
          ],
          [
            25.0,
            31.5
          ],
          [
            24.794520547945204,
            29.958904109589042
          ],
          [
            20.0,
            29.0
          ],
          [
            16.0,
            30.0
          ],
          [
            13.0,
            31.0
          ]
        ]
      ],
      [
        [
          [
            32.5,
            31.0
          ],
          [
            34.5,
            29.5
          ],
          [
            32.5,
            24.0
          ],
          [
            25.0,
            22.0
          ],
          [
            24.0,
            24.0
          ],
          [
            24.794520547945204,
            29.958904109589042
          ],
          [
            25.0,
            30.0
          ],
          [
            25.0,
            31.5
          ],
          [
            32.5,
            31.0
          ]
        ]
      ],
      [
        [
          [
            11.5,
            37.0
          ],
          [
            11.5,
            33.5
          ],
          [
            7.5,
            31.0
          ],
          [
            5.0,
            33.0
          ],
          [
            7.5,
            37.0
          ],
          [
            11.5,
            37.0
          ]
        ]
      ],
      [
        [
          [
            20.5,
            37.5
          ],
          [
            20.0,
            38.5
          ],
          [
            19.5,
            40.5
          ],
          [
            19.5,
            42.5
          ],
          [
            22.0,
            43.5
          ],
          [
            24.5,
            43.5
          ],
          [
            26.5,
            42.0
          ],
          [
            28.0,
            43.5
          ],
          [
            30.5,
            46.0
          ],
          [
            30.5,
            43.0
          ],
          [
            29.5,
            42.0
          ],
          [
            29.2,
            41.7
          ],
          [
            28.0,
            42.0
          ],
          [
            27.125,
            41.34375
          ],
          [
            26.5,
            41.5
          ],
          [
            26.307692307692307,
            40.73076923076923
          ],
          [
            26.0,
            40.5
          ],
          [
            26.1875,
            40.25
          ],
          [
            26.0,
            39.5
          ],
          [
            24.0,
            38.5
          ],
          [
            22.0,
            37.0
          ],
          [
            20.5,
            37.5
          ]
        ]
      ],
      [
        [
          [
            30.0,
            41.5
          ],
          [
            32.5,
            41.5
          ],
          [
            35.0,
            42.0
          ],
          [
            38.5,
            39.5
          ],
          [
            36.65384615384615,
            37.19230769230769
          ],
          [
            35.5,
            37.0
          ],
          [
            35.470588235294116,
            36.794117647058826
          ],
          [
            34.0,
            36.5
          ],
          [
            29.5,
            37.5
          ],
          [
            27.5,
            38.5
          ],
          [
            26.1875,
            40.25
          ],
          [
            26.307692307692307,
            40.73076923076923
          ],
          [
            27.125,
            41.34375
          ],
          [
            28.5,
            41.0
          ],
          [
            29.2,
            41.7
          ],
          [
            30.0,
            41.5
          ]
        ]
      ],
      [
        [
          [
            38.5,
            37.5
          ],
          [
            42.5,
            37.5
          ],
          [
            43.0,
            35.5
          ],
          [
            40.5,
            33.0
          ],
          [
            36.5,
            33.0
          ],
          [
            35.0,
            33.5
          ],
          [
            35.470588235294116,
            36.794117647058826
          ],
          [
            36.5,
            37.0
          ],
          [
            36.65384615384615,
            37.19230769230769
          ],
          [
            38.5,
            37.5
          ]
        ]
      ],
      [
        [
          [
            14.0,
            45.5
          ],
          [
            14.5,
            45.0
          ],
          [
            13.5,
            44.0
          ],
          [
            12.0,
            44.5
          ],
          [
            14.0,
            45.5
          ]
        ]
      ],
      [
        [
          [
            34.5,
            34.5
          ],
          [
            33.5,
            34.5
          ],
          [
            32.3,
            34.5
          ],
          [
            34.6,
            35.7
          ],
          [
            34.5,
            34.5
          ]
        ]
      ]
    ]
  },
  "properties": {
    "year_start": 395,
    "year_end": 1453,
    "date_precision": "approximate",
    "confidence_type": "approximate",
    "source_name": "Manual trace \u2014 approximate historical boundaries",
    "source_license": "CC0"
  }
}