{
  "type": "Feature",
  "geometry": {
    "type": "MultiPolygon",
    "coordinates": [
      [[[19.5,42.5],[22.0,43.5],[24.5,43.5],[26.5,42.0],[28.0,43.5],[30.5,46.0],[30.5,43.0],[29.5,42.0],[28.5,41.0],[26.5,41.5],[26.0,39.5],[24.0,38.5],[22.0,37.0],[20.5,37.5],[20.0,38.5],[19.5,40.5],[19.5,42.5]]],
      [[[26.0,40.5],[28.0,42.0],[30.0,41.5],[32.5,41.5],[35.0,42.0],[38.5,39.5],[36.5,37.0],[34.0,36.5],[29.5,37.5],[27.5,38.5],[26.0,40.5]]],
      [[[35.5,37.0],[38.5,37.5],[42.5,37.5],[43.0,35.5],[40.5,33.0],[36.5,33.0],[35.0,33.5],[35.5,37.0]]],
      [[[25.0,31.5],[32.5,31.0],[34.5,29.5],[32.5,24.0],[25.0,22.0],[24.0,24.0],[25.0,31.5]]],
      [[[11.5,33.5],[20.5,32.5],[25.0,31.5],[25.0,30.0],[20.0,29.0],[16.0,30.0],[13.0,31.0],[11.5,33.5]]],
      [[[7.5,37.0],[11.5,37.0],[11.5,33.5],[7.5,31.0],[5.0,33.0],[7.5,37.0]]],
      [[[12.0,44.5],[14.0,45.5],[14.5,45.0],[13.5,44.0],[12.0,44.5]]],
      [[[32.3,34.5],[34.6,35.7],[34.5,34.5],[33.5,34.5],[32.3,34.5]]]
    ]
  },
  "properties": {}
}
