{
  "type": "Feature",
  "geometry": {
    "type": "MultiPolygon",
    "coordinates": [
      [
        [
          [
            10.5,
            31.5
          ],
          [
            9.0,
            31.0
          ],
          [
            7.5,
            31.0
          ],
          [
            6.0,
            31.5
          ],
          [
            5.0,
            33.0
          ],
          [
            5.5,
            37.0
          ],
          [
            9.5,
            37.2
          ],
          [
            11.5,
            33.5
          ],
          [
            10.5,
            31.5
          ]
        ]
      ],
      [
        [
          [
            5.0,
            36.0
          ],
          [
            2.0,
            35.0
          ],
          [
            0.0,
            35.5
          ],
          [
            3.0,
            37.0
          ],
          [
            5.5,
            37.0
          ],
          [
            5.0,
            36.0
          ]
        ]
      ],
      [
        [
          [
            13.0,
            38.2
          ],
          [
            13.5,
            37.5
          ],
          [
            12.5,
            37.8
          ],
          [
            12.0,
            38.0
          ],
          [
            12.5,
            38.2
          ],
          [
            13.0,
            38.2
          ]
        ]
      ],
      [
        [
          [
            -0.5,
            39.0
          ],
          [
            0.0,
            40.5
          ],
          [
            1.0,
            40.5
          ],
          [
            1.5,
            39.5
          ],
          [
            0.5,
            38.5
          ],
          [
            -2.5,
            36.0
          ],
          [
            -5.0,
            35.5
          ],
          [
            -4.5,
            36.5
          ],
          [
            -1.5,
            37.5
          ],
          [
            -0.5,
            39.0
          ]
        ]
      ],
      [
        [
          [
            8.8,
            38.0
          ],
          [
            8.2,
            38.5
          ],
          [
            8.2,
            41.0
          ],
          [
            9.5,
            41.3
          ],
          [
            9.8,
            40.5
          ],
          [
            9.5,
            38.8
          ],
          [
            8.8,
            38.0
          ]
        ]
      ]
    ]
  },
  "properties": {
    "year_start": -500,
    "year_end": -264,
    "date_precision": "approximate",
    "confidence_type": "approximate",
    "source_name": "Manual trace \u2014 approximate historical boundaries",
    "source_license": "CC0"
  }
}