{
  "type": "Feature",
  "properties": {},
  "geometry": {
    "type": "MultiPolygon",
    "coordinates": [
      [
        [
          [
            -10.7,
            49.8
          ],
          [
            1.8,
            49.8
          ],
          [
            1.8,
            60.9
          ],
          [
            -10.7,
            60.9
          ],
          [
            -10.7,
            49.8
          ]
        ]
      ],
      [
        [
          [
            -141,
            49.5
          ],
          [
            -95,
            49.5
          ],
          [
            -52,
            45
          ],
          [
            -52,
            70
          ],
          [
            -141,
            70
          ],
          [
            -141,
            49.5
          ]
        ]
      ],
      [
        [
          [
            -79,
            10
          ],
          [
            -59,
            10
          ],
          [
            -59,
            19
          ],
          [
            -79,
            19
          ],
          [
            -79,
            10
          ]
        ]
      ],
      [
        [
          [
            68,
            8
          ],
          [
            80,
            6
          ],
          [
            97.5,
            10
          ],
          [
            97.5,
            28
          ],
          [
            68,
            35
          ],
          [
            68,
            8
          ]
        ]
      ],
      [
        [
          [
            99,
            -4
          ],
          [
            119,
            -4
          ],
          [
            119,
            7
          ],
          [
            99,
            7
          ],
          [
            99,
            -4
          ]
        ]
      ],
      [
        [
          [
            113,
            -39
          ],
          [
            154,
            -39
          ],
          [
            154,
            -10
          ],
          [
            113,
            -10
          ],
          [
            113,
            -39
          ]
        ]
      ],
      [
        [
          [
            166,
            -47
          ],
          [
            179,
            -47
          ],
          [
            179,
            -34
          ],
          [
            166,
            -34
          ],
          [
            166,
            -47
          ]
        ]
      ],
      [
        [
          [
            176,
            -20
          ],
          [
            180,
            -20
          ],
          [
            180,
            -15
          ],
          [
            176,
            -15
          ],
          [
            176,
            -20
          ]
        ]
      ],
      [
        [
          [
            141,
            -9.5
          ],
          [
            152,
            -9.5
          ],
          [
            152,
            -5
          ],
          [
            141,
            -5
          ],
          [
            141,
            -9.5
          ]
        ]
      ],
      [
        [
          [
            22,
            -21.5
          ],
          [
            33,
            -21.5
          ],
          [
            33,
            3
          ],
          [
            22,
            3
          ],
          [
            22,
            -21.5
          ]
        ]
      ],
      [
        [
          [
            16,
            -35
          ],
          [
            27.5,
            -35
          ],
          [
            27.5,
            -22
          ],
          [
            16,
            -22
          ],
          [
            16,
            -35
          ]
        ]
      ],
      [
        [
          [
            -14,
            4
          ],
          [
            10,
            4
          ],
          [
            10,
            10
          ],
          [
            -14,
            10
          ],
          [
            -14,
            4
          ]
        ]
      ],
      [
        [
          [
            24,
            8
          ],
          [
            33,
            8
          ],
          [
            34.5,
            22
          ],
          [
            34.5,
            32
          ],
          [
            24,
            32
          ],
          [
            24,
            8
          ]
        ]
      ],
      [
        [
          [
            32.2,
            34.5
          ],
          [
            34.6,
            34.5
          ],
          [
            34.6,
            35.7
          ],
          [
            32.2,
            35.7
          ],
          [
            32.2,
            34.5
          ]
        ]
      ],
      [
        [
          [
            14.1,
            35.8
          ],
          [
            14.6,
            35.8
          ],
          [
            14.6,
            36.1
          ],
          [
            14.1,
            36.1
          ],
          [
            14.1,
            35.8
          ]
        ]
      ],
      [
        [
          [
            -5.4,
            36.05
          ],
          [
            -5.3,
            36.05
          ],
          [
            -5.3,
            36.2
          ],
          [
            -5.4,
            36.2
          ],
          [
            -5.4,
            36.05
          ]
        ]
      ]
    ]
  }
}