{
  "type": "Feature",
  "properties": {},
  "geometry": {
    "type": "MultiPolygon",
    "coordinates": [
      [
        [
          [
            -141,
            42
          ],
          [
            -95,
            42
          ],
          [
            -52,
            45
          ],
          [
            -52,
            70
          ],
          [
            -141,
            70
          ],
          [
            -141,
            42
          ]
        ]
      ],
      [
        [
          [
            68,
            8
          ],
          [
            80,
            6
          ],
          [
            98,
            10
          ],
          [
            98,
            28
          ],
          [
            68,
            35
          ],
          [
            68,
            8
          ]
        ]
      ],
      [
        [
          [
            113,
            -39
          ],
          [
            154,
            -39
          ],
          [
            154,
            -10
          ],
          [
            113,
            -10
          ],
          [
            113,
            -39
          ]
        ]
      ],
      [
        [
          [
            166,
            -47
          ],
          [
            179,
            -47
          ],
          [
            179,
            -34
          ],
          [
            166,
            -34
          ],
          [
            166,
            -47
          ]
        ]
      ],
      [
        [
          [
            29,
            -12
          ],
          [
            42,
            -12
          ],
          [
            42,
            3
          ],
          [
            29,
            3
          ],
          [
            29,
            -12
          ]
        ]
      ],
      [
        [
          [
            16,
            -35
          ],
          [
            33,
            -35
          ],
          [
            33,
            -22
          ],
          [
            16,
            -22
          ],
          [
            16,
            -35
          ]
        ]
      ],
      [
        [
          [
            -17,
            4
          ],
          [
            14,
            4
          ],
          [
            14,
            15
          ],
          [
            -17,
            15
          ],
          [
            -17,
            4
          ]
        ]
      ],
      [
        [
          [
            24,
            8
          ],
          [
            33,
            8
          ],
          [
            34.5,
            22
          ],
          [
            34.5,
            32
          ],
          [
            24,
            32
          ],
          [
            24,
            8
          ]
        ]
      ],
      [
        [
          [
            35,
            29
          ],
          [
            48,
            29
          ],
          [
            48,
            37
          ],
          [
            35,
            37
          ],
          [
            35,
            29
          ]
        ]
      ],
      [
        [
          [
            -79,
            10
          ],
          [
            -59,
            10
          ],
          [
            -59,
            19
          ],
          [
            -79,
            19
          ],
          [
            -79,
            10
          ]
        ]
      ]
    ]
  }
}