{
  "type": "Feature",
  "properties": {},
  "geometry": {
    "type": "MultiPolygon",
    "coordinates": [
      [
        [
          [
            -82,
            25
          ],
          [
            -70,
            25
          ],
          [
            -66,
            38
          ],
          [
            -66,
            45
          ],
          [
            -82,
            45
          ],
          [
            -82,
            25
          ]
        ]
      ],
      [
        [
          [
            -79,
            17
          ],
          [
            -76,
            17
          ],
          [
            -76,
            19
          ],
          [
            -79,
            19
          ],
          [
            -79,
            17
          ]
        ]
      ],
      [
        [
          [
            86,
            21
          ],
          [
            89,
            21
          ],
          [
            89,
            23
          ],
          [
            86,
            23
          ],
          [
            86,
            21
          ]
        ]
      ]
    ]
  }
}