{
  "type": "Feature",
  "properties": {},
  "geometry": {
    "type": "MultiPolygon",
    "coordinates": [
      [
        [
          [
            -10.7,
            49.8
          ],
          [
            1.8,
            49.8
          ],
          [
            1.8,
            60.9
          ],
          [
            -10.7,
            60.9
          ],
          [
            -10.7,
            49.8
          ]
        ]
      ],
      [
        [
          [
            -5.4,
            36.05
          ],
          [
            -5.3,
            36.05
          ],
          [
            -5.3,
            36.2
          ],
          [
            -5.4,
            36.2
          ],
          [
            -5.4,
            36.05
          ]
        ]
      ],
      [
        [
          [
            -65.1,
            32.2
          ],
          [
            -64.6,
            32.2
          ],
          [
            -64.6,
            32.4
          ],
          [
            -65.1,
            32.4
          ],
          [
            -65.1,
            32.2
          ]
        ]
      ],
      [
        [
          [
            -81.5,
            19.2
          ],
          [
            -79.7,
            19.2
          ],
          [
            -79.7,
            19.8
          ],
          [
            -81.5,
            19.8
          ],
          [
            -81.5,
            19.2
          ]
        ]
      ],
      [
        [
          [
            -64.9,
            18.2
          ],
          [
            -64.2,
            18.2
          ],
          [
            -64.2,
            18.8
          ],
          [
            -64.9,
            18.8
          ],
          [
            -64.9,
            18.2
          ]
        ]
      ],
      [
        [
          [
            -59.9,
            -52.1
          ],
          [
            -57.7,
            -52.1
          ],
          [
            -57.7,
            -51.0
          ],
          [
            -59.9,
            -51.0
          ],
          [
            -59.9,
            -52.1
          ]
        ]
      ]
    ]
  }
}