{
  "type": "Feature",
  "properties": {},
  "geometry": {
    "type": "MultiPolygon",
    "coordinates": [
      [
        [
          [
            -8,
            49.9
          ],
          [
            2,
            49.9
          ],
          [
            2,
            59
          ],
          [
            -8,
            59
          ],
          [
            -8,
            49.9
          ]
        ]
      ],
      [
        [
          [
            113.8,
            22.1
          ],
          [
            114.4,
            22.1
          ],
          [
            114.4,
            22.6
          ],
          [
            113.8,
            22.6
          ],
          [
            113.8,
            22.1
          ]
        ]
      ],
      [
        [
          [
            -65.1,
            32.2
          ],
          [
            -64.6,
            32.2
          ],
          [
            -64.6,
            32.4
          ],
          [
            -65.1,
            32.4
          ],
          [
            -65.1,
            32.2
          ]
        ]
      ]
    ]
  }
}