{
  "type": "Feature",
  "geometry": {
    "type": "MultiPolygon",
    "coordinates": [
      [
        [
          [
            38.5,
            37.5
          ],
          [
            42.5,
            37.5
          ],
          [
            49.0,
            37.0
          ],
          [
            57.0,
            38.0
          ],
          [
            63.5,
            35.5
          ],
          [
            63.0,
            31.0
          ],
          [
            60.5,
            25.5
          ],
          [
            57.0,
            25.5
          ],
          [
            53.0,
            26.5
          ],
          [
            50.0,
            27.5
          ],
          [
            47.0,
            30.0
          ],
          [
            44.0,
            29.0
          ],
          [
            41.0,
            31.0
          ],
          [
            38.5,
            33.5
          ],
          [
            38.5,
            37.5
          ]
        ]
      ]
    ]
  },
  "properties": {
    "year_start": -100,
    "year_end": 224,
    "date_precision": "approximate",
    "confidence_type": "approximate",
    "source_name": "Manual trace \u2014 approximate historical boundaries",
    "source_license": "CC0",
    "end_event_type": "conquest"
  }
}