{
  "type": "Feature",
  "geometry": {
    "type": "MultiPolygon",
    "coordinates": [
      [
        [
          [
            44.0,
            39.5
          ],
          [
            49.0,
            37.0
          ],
          [
            57.0,
            38.0
          ],
          [
            63.5,
            35.5
          ],
          [
            63.0,
            31.0
          ],
          [
            60.5,
            25.5
          ],
          [
            57.0,
            25.5
          ],
          [
            50.0,
            27.5
          ],
          [
            47.0,
            30.0
          ],
          [
            44.0,
            30.0
          ],
          [
            44.0,
            33.5
          ],
          [
            44.0,
            39.5
          ]
        ]
      ]
    ]
  },
  "properties": {
    "year_start": -247,
    "year_end": -100,
    "date_precision": "approximate",
    "confidence_type": "approximate",
    "source_name": "Manual trace \u2014 approximate historical boundaries",
    "source_license": "CC0"
  }
}